NORAD_CAT_ID,OBJECT_NAME,OBJECT_TYPE,EPOCH,MEAN_MOTION,ECCENTRICITY,INCLINATION,RA_OF_ASC_NODE,ARG_OF_PERICENTER,MEAN_ANOMALY,BSTAR,MEAN_MOTION_DOT,MEAN_MOTION_DDOT,TLE_LINE0,TLE_LINE1,TLE_LINE2,SEMIMAJOR_AXIS,PERIOD,APOGEE,PERIGEE,DECAYED
51984.0,STARLINK-3664,PAYLOAD,2024-01-08 06:30:09,15.08847276,0.0001416,53.2173,351.9374,94.5286,265.5868,0.00011075,1.475e-05,0.0,0 STARLINK-3664,1 51984U 22025AE  24008.27094233  .00001475  00000-0  11075-3 0  9996,2 51984  53.2173 351.9374 0001416  94.5286 265.5868 15.08847276102683,6917.858,95.437,540.703,538.744,0.0
51984.0,STARLINK-3664,PAYLOAD,2024-01-09 03:10:11,15.08836936,0.0001376,53.2177,348.0724,94.5719,265.543,0.00020055,2.905e-05,0.0,0 STARLINK-3664,1 51984U 22025AE  24009.13207528  .00002905  00000-0  20055-3 0  9992,2 51984  53.2177 348.0724 0001376  94.5719 265.5430 15.08836936102810,6917.89,95.438,540.707,538.803,0.0
51984.0,STARLINK-3664,PAYLOAD,2024-01-09 07:56:20,15.08844315,0.0001454,53.2168,347.1793,89.6055,270.5103,0.00033808,5.097e-05,0.0,0 STARLINK-3664,1 51984U 22025AE  24009.33079362  .00005097  00000-0  33808-3 0  9992,2 51984  53.2168 347.1793 0001454  89.6055 270.5103 15.08844315101745,6917.867,95.437,540.738,538.726,0.0
51984.0,STARLINK-3664,PAYLOAD,2024-01-10 07:47:07,15.08857481,0.0001577,53.2165,342.7168,86.7889,273.3284,0.00054706,8.433e-05,0.0,0 STARLINK-3664,1 51984U 22025AE  24010.32438920  .00008433  00000-0  54706-3 0  9999,2 51984  53.2165 342.7168 0001577  86.7889 273.3284 15.08857481102995,6917.827,95.436,540.783,538.601,0.0
51984.0,STARLINK-3664,PAYLOAD,2024-01-11 02:51:44,15.08849724,0.0001839,53.2177,339.1408,118.9395,241.1781,0.00024653,3.639e-05,0.0,0 STARLINK-3664,1 51984U 22025AE  24011.11926800  .00003639  00000-0  24653-3 0  9997,2 51984  53.2177 339.1408 0001839 118.9395 241.1781 15.08849724103117,6917.851,95.437,540.988,538.443,0.0
51984.0,STARLINK-3664,PAYLOAD,2024-01-11 04:27:07,15.08847786,0.0001687,53.218,338.8415,109.2498,250.8677,0.00030779,4.615e-05,0.0,0 STARLINK-3664,1 51984U 22025AE  24011.18550814  .00004615  00000-0  30779-3 0  9993,2 51984  53.2180 338.8415 0001687 109.2498 250.8677 15.08847786102029,6917.857,95.437,540.889,538.555,0.0
51984.0,STARLINK-3664,PAYLOAD,2024-01-11 21:56:22,15.08842565,0.000148,53.218,335.5802,104.1145,256.0011,0.0001085,1.439e-05,0.0,0 STARLINK-3664,1 51984U 22025AE  24011.91415045  .00001439  00000-0  10850-3 0  9999,2 51984  53.2180 335.5802 0001480 104.1145 256.0011 15.08842565102139,6917.873,95.437,540.761,538.714,0.0
51984.0,STARLINK-3664,PAYLOAD,2024-01-12 04:17:55,15.08840359,0.0001701,53.2194,334.3933,105.4161,254.7019,3.9359e-05,3.38e-06,0.0,0 STARLINK-3664,1 51984U 22025AE  24012.17911322  .00000338  00000-0  39359-4 0  9990,2 51984  53.2194 334.3933 0001701 105.4161 254.7019 15.08840359103272,6917.879,95.438,540.921,538.568,0.0
51984.0,STARLINK-3664,PAYLOAD,2024-01-12 07:28:41,15.08842343,0.0001576,53.2182,333.7957,106.7915,253.325,8.0078e-05,9.87e-06,0.0,0 STARLINK-3664,1 51984U 22025AE  24012.31159078  .00000987  00000-0  80078-4 0  9992,2 51984  53.2182 333.7957 0001576 106.7915 253.3250 15.08842343102196,6917.873,95.437,540.828,538.648,0.0
51984.0,STARLINK-3664,PAYLOAD,2024-01-12 21:47:10,15.08827947,0.0001275,53.2176,331.1142,110.4609,249.652,-0.00012492,-2.275e-05,0.0,0 STARLINK-3664,1 51984U 22025AE  24012.90776056 -.00002275  00000-0 -12492-3 0  9996,2 51984  53.2176 331.1142 0001275 110.4609 249.6520 15.08827947102286,6917.917,95.438,540.664,538.9,0.0
51984.0,STARLINK-3664,PAYLOAD,2024-01-13 02:33:20,15.08829444,0.0001519,53.2182,330.2224,112.3788,247.7366,-5.9632e-05,-1.237e-05,0.0,0 STARLINK-3664,1 51984U 22025AE  24013.10648238 -.00001237  00000-0 -59632-4 0  9994,2 51984  53.2182 330.2224 0001519 112.3788 247.7366 15.08829444103411,6917.913,95.438,540.828,538.727,0.0
51984.0,STARLINK-3664,PAYLOAD,2024-01-14 03:59:30,15.08851982,0.0001449,53.2181,325.4706,100.2171,259.8985,0.00050314,7.731e-05,0.0,0 STARLINK-3664,1 51984U 22025AE  24014.16632258  .00007731  00000-0  50314-3 0  9996,2 51984  53.2181 325.4706 0001449 100.2171 259.8985 15.08851982103575,6917.844,95.437,540.711,538.706,0.0
51984.0,STARLINK-3664,PAYLOAD,2024-01-14 07:10:16,15.08855163,0.0001434,53.2179,324.8773,105.0799,255.0352,0.00064641,0.00010019,0.0,0 STARLINK-3664,1 51984U 22025AE  24014.29880267  .00010019  00000-0  64641-3 0  9996,2 51984  53.2179 324.8773 0001434 105.0799 255.0352 15.08855163102493,6917.834,95.437,540.691,538.707,0.0
51984.0,STARLINK-3664,PAYLOAD,2024-01-15 03:50:16,15.08861806,0.0001484,53.2183,321.0144,118.7942,241.3199,0.0005809,8.975e-05,0.0,0 STARLINK-3664,1 51984U 22025AE  24015.15991722  .00008975  00000-0  58090-3 0  9990,2 51984  53.2183 321.0144 0001484 118.7942 241.3199 15.08861806103720,6917.814,95.436,540.705,538.652,0.0
51984.0,STARLINK-3664,PAYLOAD,2024-01-15 05:25:39,15.08864929,0.000138,53.2178,320.7143,95.7759,264.339,0.000565,8.722e-05,0.0,0 STARLINK-3664,1 51984U 22025AE  24015.22615344  .00008722  00000-0  56500-3 0  9995,2 51984  53.2178 320.7143 0001380  95.7759 264.3390 15.08864929102630,6917.804,95.436,540.624,538.715,0.0
51984.0,STARLINK-3664,PAYLOAD,2024-01-16 00:30:17,15.08839822,0.0001126,53.2183,317.1452,91.0131,269.0991,0.00012743,1.741e-05,0.0,0 STARLINK-3664,1 51984U 22025AE  24016.02104049  .00001741  00000-0  12743-3 0  9994,2 51984  53.2183 317.1452 0001126  91.0131 269.0991 15.08839822103858,6917.881,95.438,540.525,538.967,0.0
51984.0,STARLINK-3664,PAYLOAD,2024-01-16 05:16:26,15.08857958,0.00014,53.2183,316.2526,116.9698,243.1437,0.00042892,6.548e-05,0.0,0 STARLINK-3664,1 51984U 22025AE  24016.21975433  .00006548  00000-0  42892-3 0  9996,2 51984  53.2183 316.2526 0001400 116.9698 243.1437 15.08857958103881,6917.825,95.436,540.659,538.722,0.0
51984.0,STARLINK-3664,PAYLOAD,2024-01-16 19:34:55,15.08838432,0.0001547,53.2181,313.5735,117.7168,242.3981,9.1149e-06,-1.43e-06,0.0,0 STARLINK-3664,1 51984U 22025AE  24016.81592570 -.00000143  00000-0  91149-5 0  9996,2 51984  53.2181 313.5735 0001547 117.7168 242.3981 15.08838432103975,6917.885,95.438,540.82,538.68,0.0
51984.0,STARLINK-3664,PAYLOAD,2024-01-17 01:56:28,15.088403,0.0002193,53.218,312.3881,130.3766,229.7418,0.00019938,2.886e-05,0.0,0 STARLINK-3664,1 51984U 22025AE  24017.08088087  .00002886  00000-0  19938-3 0  9998,2 51984  53.2180 312.3881 0002193 130.3766 229.7418 15.08840300104013,6917.879,95.438,541.262,538.227,0.0
51984.0,STARLINK-3664,PAYLOAD,2024-01-17 22:36:29,15.08837825,0.0001762,53.217,308.5255,95.7325,264.3868,0.00028519,4.253e-05,0.0,0 STARLINK-3664,1 51984U 22025AE  24017.94200847  .00004253  00000-0  28519-3 0  9998,2 51984  53.2170 308.5255 0001762  95.7325 264.3868 15.08837825103044,6917.887,95.438,540.971,538.533,0.0
51984.0,STARLINK-3664,PAYLOAD,2024-01-18 01:47:15,15.08841962,0.0001763,53.2179,307.9305,101.3642,258.7548,0.0001374,1.899e-05,0.0,0 STARLINK-3664,1 51984U 22025AE  24018.07448630  .00001899  00000-0  13740-3 0  9990,2 51984  53.2179 307.9305 0001763 101.3642 258.7548 15.08841962104162,6917.874,95.437,540.959,538.52,0.0
51984.0,STARLINK-3664,PAYLOAD,2024-01-18 22:27:16,15.08844365,0.0001875,53.2181,304.0644,108.9899,251.1297,0.00024016,3.537e-05,0.0,0 STARLINK-3664,1 51984U 22025AE  24018.93560638  .00003537  00000-0  24016-3 0  9997,2 51984  53.2181 304.0644 0001875 108.9899 251.1297 15.08844365103190,6917.867,95.437,541.029,538.435,0.0
51984.0,STARLINK-3664,PAYLOAD,2024-01-19 01:38:02,15.08848017,0.0001784,53.2178,303.4674,106.9205,253.1983,0.00023486,3.453e-05,0.0,0 STARLINK-3664,1 51984U 22025AE  24019.06808424  .00003453  00000-0  23486-3 0  9997,2 51984  53.2178 303.4674 0001784 106.9205 253.1983 15.08848017103215,6917.856,95.437,540.955,538.487,0.0
51984.0,STARLINK-3664,PAYLOAD,2024-01-19 19:07:17,15.08838691,0.0001574,53.2173,300.1938,102.2605,257.8563,6.2452e-05,7.06e-06,0.0,0 STARLINK-3664,1 51984U 22025AE  24019.79672839  .00000706  00000-0  62452-4 0  9991,2 51984  53.2173 300.1938 0001574 102.2605 257.8563 15.08838691104423,6917.884,95.438,540.838,538.661,0.0
51984.0,STARLINK-3664,PAYLOAD,2024-01-19 22:18:03,15.08838699,0.0001836,53.2173,299.5988,117.9216,242.1962,3.8681e-05,3.28e-06,0.0,0 STARLINK-3664,1 51984U 22025AE  24019.92920740  .00000328  00000-0  38681-4 0  9990,2 51984  53.2173 299.5988 0001836 117.9216 242.1962 15.08838699103349,6917.884,95.438,541.019,538.479,0.0
51984.0,STARLINK-3664,PAYLOAD,2024-01-19 23:53:26,15.08838928,0.0001815,53.2176,299.3013,117.5506,242.5671,6.2839e-05,7.12e-06,0.0,0 STARLINK-3664,1 51984U 22025AE  24019.99544798  .00000712  00000-0  62839-4 0  9991,2 51984  53.2176 299.3013 0001815 117.5506 242.5671 15.08838928103351,6917.884,95.438,541.004,538.493,0.0
51984.0,STARLINK-3664,PAYLOAD,2024-01-20 22:08:50,15.08842333,0.0001424,53.2166,295.1401,106.1706,253.9443,1.725e-05,-1.3e-07,0.0,0 STARLINK-3664,1 51984U 22025AE  24020.92280869 -.00000013  00000-0  17250-4 0  9994,2 51984  53.2166 295.1401 0001424 106.1706 253.9443 15.08842333103490,6917.873,95.437,540.723,538.753,0.0
51984.0,STARLINK-3664,PAYLOAD,2024-01-21 02:54:59,15.0884984,0.0001452,53.2175,294.2509,104.1639,255.9515,0.00017543,2.506e-05,0.0,0 STARLINK-3664,1 51984U 22025AE  24021.12152510  .00002506  00000-0  17543-3 0  9990,2 51984  53.2175 294.2509 0001452 104.1639 255.9515 15.08849840104621,6917.85,95.437,540.72,538.711,0.0
51984.0,STARLINK-3664,PAYLOAD,2024-01-21 21:59:38,15.08838188,0.0001664,53.2179,290.6841,82.6699,277.4482,0.00011832,1.595e-05,0.0,0 STARLINK-3664,1 51984U 22025AE  24021.91641337  .00001595  00000-0  11832-3 0  9999,2 51984  53.2179 290.6841 0001664  82.6699 277.4482 15.08838188103641,6917.886,95.438,540.902,538.6,0.0
51984.0,STARLINK-3664,PAYLOAD,2024-01-22 01:10:24,15.08839165,0.0001477,53.2177,290.0902,81.2931,278.8228,0.00012287,1.668e-05,0.0,0 STARLINK-3664,1 51984U 22025AE  24022.04889279  .00001668  00000-0  12287-3 0  9999,2 51984  53.2177 290.0902 0001477  81.2931 278.8228 15.08839165104760,6917.883,95.438,540.77,538.726,0.0
